{"fetched_at":"2026-03-29T16:36:15Z","count":15609,"tles":[{"name":"STARLINK-34266","line1":"1 65093U 25167R   26087.86526501  .00024949  00000+0  85182-3 0  9994","line2":"2 65093  53.1586 297.7363 0001056  83.4647 276.6474 15.30194130 36411","category":"Starlink"}]}